{"type": "FeatureCollection", "features": [ {"type": "Feature", "properties": {"norad_id": 35432, "name": "COSMOS 2251 DEB", "group": "cosmos-2251-debris", "lat": 70.2540106689188, "lon": 37.75090625565301, "alt_km": 489.1011471030679, "timestamp": "2025-12-27T07:26:25.616588+00:00", "meta": {"OBJECT_NAME": "COSMOS 2251 DEB", "OBJECT_ID": "1993-036AKA", "EPOCH": "2025-12-26T16:55:32.526912", "MEAN_MOTION": 15.24667745, "ECCENTRICITY": 0.00123172, "INCLINATION": 74.0222, "RA_OF_ASC_NODE": 346.0679, "ARG_OF_PERICENTER": 316.4683, "MEAN_ANOMALY": 43.5544, "EPHEMERIS_TYPE": 0, "CLASSIFICATION_TYPE": "U", "NORAD_CAT_ID": 35432, "ELEMENT_SET_NO": 999, "REV_AT_EPOCH": 87716, "BSTAR": 0.0017906457, "MEAN_MOTION_DOT": 0.00044578, "MEAN_MOTION_DDOT": 0}, "tle": {"line1": "1 35432U 93036AKA 25360.70523758  .00044578  00000+0  17906-2 0  9993", "line2": "2 35432  74.0222 346.0679 0012317 316.4683  43.5544 15.24667745877167"}}, "geometry": {"type": "Point", "coordinates": [37.75090625565301, 70.2540106689188]}}, {"type": "Feature", "properties": {"norad_id": 35433, "name": "COSMOS 2251 DEB", "group": "cosmos-2251-debris", "lat": -71.33306946439868, "lon": -170.30831173564357, "alt_km": 786.7650349777441, "timestamp": "2025-12-27T07:26:25.616599+00:00", "meta": {"OBJECT_NAME": "COSMOS 2251 DEB", "OBJECT_ID": "1993-036AKB", "EPOCH": "2025-12-10T18:27:52.031808", "MEAN_MOTION": 14.34742553, "ECCENTRICITY": 0.00254013, "INCLINATION": 74.0339, "RA_OF_ASC_NODE": 342.0559, "ARG_OF_PERICENTER": 37.4572, "MEAN_ANOMALY": 142.4072, "EPHEMERIS_TYPE": 0, "CLASSIFICATION_TYPE": "U", "NORAD_CAT_ID": 35433, "ELEMENT_SET_NO": 999, "REV_AT_EPOCH": 86552, "BSTAR": 0.00041847558, "MEAN_MOTION_DOT": 1.164e-05, "MEAN_MOTION_DDOT": 0}, "tle": {"line1": "1 35433U 93036AKB 25344.76935222  .00001164  00000+0  41848-3 0  9992", "line2": "2 35433  74.0339 342.0559 0025401  37.4572 142.4072 14.34742553865528"}}, "geometry": {"type": "Point", "coordinates": [-170.30831173564357, -71.33306946439868]}}, {"type": "Feature", "properties": {"norad_id": 35434, "name": "COSMOS 2251 DEB", "group": "cosmos-2251-debris", "lat": 57.257058519681536, "lon": -146.24440736449085, "alt_km": 861.0547329614983, "timestamp": "2025-12-27T07:26:25.616609+00:00", "meta": {"OBJECT_NAME": "COSMOS 2251 DEB", "OBJECT_ID": "1993-036AKC", "EPOCH": "2025-12-23T05:28:40.876896", "MEAN_MOTION": 14.25716012, "ECCENTRICITY": 0.00872798, "INCLINATION": 74.0389, "RA_OF_ASC_NODE": 194.6941, "ARG_OF_PERICENTER": 263.2384, "MEAN_ANOMALY": 95.8825, "EPHEMERIS_TYPE": 0, "CLASSIFICATION_TYPE": "U", "NORAD_CAT_ID": 35434, "ELEMENT_SET_NO": 999, "REV_AT_EPOCH": 86267, "BSTAR": 0.00051853095, "MEAN_MOTION_DOT": 1.255e-05, "MEAN_MOTION_DDOT": 0}, "tle": {"line1": "1 35434U 93036AKC 25357.22825089  .00001255  00000+0  51853-3 0  9995", "line2": "2 35434  74.0389 194.6941 0087279 263.2384  95.8825 14.25716012862672"}}, "geometry": {"type": "Point", "coordinates": [-146.24440736449085, 57.257058519681536]}}, {"type": "Feature", "properties": {"norad_id": 35435, "name": "COSMOS 2251 DEB", "group": "cosmos-2251-debris", "lat": 28.697601880797713, "lon": -113.64832677693703, "alt_km": 626.9838129283053, "timestamp": "2025-12-27T07:26:25.616619+00:00", "meta": {"OBJECT_NAME": "COSMOS 2251 DEB", "OBJECT_ID": "1993-036AKD", "EPOCH": "2025-12-26T23:27:11.821824", "MEAN_MOTION": 14.78894753, "ECCENTRICITY": 0.00063847, "INCLINATION": 74.0104, "RA_OF_ASC_NODE": 76.0379, "ARG_OF_PERICENTER": 173.0542, "MEAN_ANOMALY": 5.8137, "EPHEMERIS_TYPE": 0, "CLASSIFICATION_TYPE": "U", "NORAD_CAT_ID": 35435, "ELEMENT_SET_NO": 999, "REV_AT_EPOCH": 87749, "BSTAR": 0.0023962208, "MEAN_MOTION_DOT": 0.00017681, "MEAN_MOTION_DDOT": 0}, "tle": {"line1": "1 35435U 93036AKD 25360.97722016  .00017681  00000+0  23962-2 0  9997", "line2": "2 35435  74.0104  76.0379 0006384 173.0542   5.8137 14.78894753877498"}}, "geometry": {"type": "Point", "coordinates": [-113.64832677693703, 28.697601880797713]}}, {"type": "Feature", "properties": {"norad_id": 35439, "name": "COSMOS 2251 DEB", "group": "cosmos-2251-debris", "lat": -71.05748876956078, "lon": -13.614278566590839, "alt_km": 755.032793518938, "timestamp": "2025-12-27T07:26:25.616629+00:00", "meta": {"OBJECT_NAME": "COSMOS 2251 DEB", "OBJECT_ID": "1993-036AKH", "EPOCH": "2025-12-23T01:03:41.280192", "MEAN_MOTION": 13.9285581, "ECCENTRICITY": 0.02428241, "INCLINATION": 74.0195, "RA_OF_ASC_NODE": 117.083, "ARG_OF_PERICENTER": 284.1415, "MEAN_ANOMALY": 194.5054, "EPHEMERIS_TYPE": 0, "CLASSIFICATION_TYPE": "U", "NORAD_CAT_ID": 35439, "ELEMENT_SET_NO": 999, "REV_AT_EPOCH": 84104, "BSTAR": 0.0017241175, "MEAN_MOTION_DOT": 2.822e-05, "MEAN_MOTION_DDOT": 0}, "tle": {"line1": "1 35439U 93036AKH 25357.04422778  .00002822  00000+0  17241-2 0  9991", "line2": "2 35439  74.0195 117.0830 0242824 284.1415 194.5054 13.92855810841046"}}, "geometry": {"type": "Point", "coordinates": [-13.614278566590839, -71.05748876956078]}}, {"type": "Feature", "properties": {"norad_id": 35440, "name": "COSMOS 2251 DEB", "group": "cosmos-2251-debris", "lat": -4.901398304194508, "lon": 177.98690730182034, "alt_km": 628.8195564662528, "timestamp": "2025-12-27T07:26:25.616639+00:00", "meta": {"OBJECT_NAME": "COSMOS 2251 DEB", "OBJECT_ID": "1993-036AKJ", "EPOCH": "2025-12-26T18:23:12.577920", "MEAN_MOTION": 14.68880291, "ECCENTRICITY": 0.00699138, "INCLINATION": 74.0164, "RA_OF_ASC_NODE": 180.4489, "ARG_OF_PERICENTER": 318.4907, "MEAN_ANOMALY": 41.0964, "EPHEMERIS_TYPE": 0, "CLASSIFICATION_TYPE": "U", "NORAD_CAT_ID": 35440, "ELEMENT_SET_NO": 999, "REV_AT_EPOCH": 68971, "BSTAR": 0.00042501367, "MEAN_MOTION_DOT": 2.545e-05, "MEAN_MOTION_DDOT": 0}, "tle": {"line1": "1 35440U 93036AKJ 25360.76611780  .00002545  00000+0  42501-3 0  9999", "line2": "2 35440  74.0164 180.4489 0069913 318.4907  41.0964 14.68880291689716"}}, "geometry": {"type": "Point", "coordinates": [177.98690730182034, -4.901398304194508]}}, {"type": "Feature", "properties": {"norad_id": 35441, "name": "COSMOS 2251 DEB", "group": "cosmos-2251-debris", "lat": -13.91636105703239, "lon": -93.69362907978545, "alt_km": 713.7779291953029, "timestamp": "2025-12-27T07:26:25.616649+00:00", "meta": {"OBJECT_NAME": "COSMOS 2251 DEB", "OBJECT_ID": "1993-036AKK", "EPOCH": "2025-12-24T12:12:34.900128", "MEAN_MOTION": 14.62759756, "ECCENTRICITY": 0.0036013, "INCLINATION": 74.1345, "RA_OF_ASC_NODE": 275.6818, "ARG_OF_PERICENTER": 167.8993, "MEAN_ANOMALY": 192.3049, "EPHEMERIS_TYPE": 0, "CLASSIFICATION_TYPE": "U", "NORAD_CAT_ID": 35441, "ELEMENT_SET_NO": 999, "REV_AT_EPOCH": 87602, "BSTAR": 0.0014950847, "MEAN_MOTION_DOT": 7.673e-05, "MEAN_MOTION_DDOT": 0}, "tle": {"line1": "1 35441U 93036AKK 25358.50873727  .00007673  00000+0  14951-2 0  9994", "line2": "2 35441  74.1345 275.6818 0036013 167.8993 192.3049 14.62759756876029"}}, "geometry": {"type": "Point", "coordinates": [-93.69362907978545, -13.91636105703239]}}, {"type": "Feature", "properties": {"norad_id": 35442, "name": "COSMOS 2251 DEB", "group": "cosmos-2251-debris", "lat": -56.036321817910235, "lon": 45.043771669434314, "alt_km": 620.5733169257755, "timestamp": "2025-12-27T07:26:25.616659+00:00", "meta": {"OBJECT_NAME": "COSMOS 2251 DEB", "OBJECT_ID": "1993-036AKL", "EPOCH": "2025-12-26T22:00:24.772032", "MEAN_MOTION": 14.84920954, "ECCENTRICITY": 0.00041895, "INCLINATION": 74.027, "RA_OF_ASC_NODE": 70.9893, "ARG_OF_PERICENTER": 32.8104, "MEAN_ANOMALY": 327.3334, "EPHEMERIS_TYPE": 0, "CLASSIFICATION_TYPE": "U", "NORAD_CAT_ID": 35442, "ELEMENT_SET_NO": 999, "REV_AT_EPOCH": 87563, "BSTAR": 0.0022508785, "MEAN_MOTION_DOT": 0.00019188, "MEAN_MOTION_DDOT": 0}, "tle": {"line1": "1 35442U 93036AKL 25360.91695338  .00019188  00000+0  22509-2 0  9995", "line2": "2 35442  74.0270  70.9893 0004189  32.8104 327.3334 14.84920954875636"}}, "geometry": {"type": "Point", "coordinates": [45.043771669434314, -56.036321817910235]}}, {"type": "Feature", "properties": {"norad_id": 35443, "name": "COSMOS 2251 DEB", "group": "cosmos-2251-debris", "lat": -73.26852417673537, "lon": -130.82817867592567, "alt_km": 629.3204903047663, "timestamp": "2025-12-27T07:26:25.616669+00:00", "meta": {"OBJECT_NAME": "COSMOS 2251 DEB", "OBJECT_ID": "1993-036AKM", "EPOCH": "2025-12-26T12:35:18.229056", "MEAN_MOTION": 14.9791989, "ECCENTRICITY": 0.0073436, "INCLINATION": 73.9845, "RA_OF_ASC_NODE": 303.6097, "ARG_OF_PERICENTER": 81.8986, "MEAN_ANOMALY": 279.0522, "EPHEMERIS_TYPE": 0, "CLASSIFICATION_TYPE": "U", "NORAD_CAT_ID": 35443, "ELEMENT_SET_NO": 999, "REV_AT_EPOCH": 87084, "BSTAR": 0.0041019, "MEAN_MOTION_DOT": 0.00051428, "MEAN_MOTION_DDOT": 0}, "tle": {"line1": "1 35443U 93036AKM 25360.52451654  .00051428  00000+0  41019-2 0  9994", "line2": "2 35443  73.9845 303.6097 0073436  81.8986 279.0522 14.97919890870849"}}, "geometry": {"type": "Point", "coordinates": [-130.82817867592567, -73.26852417673537]}}, {"type": "Feature", "properties": {"norad_id": 35445, "name": "COSMOS 2251 DEB", "group": "cosmos-2251-debris", "lat": 57.400217267866516, "lon": 65.64171474482771, "alt_km": 743.6079970009878, "timestamp": "2025-12-27T07:26:25.616679+00:00", "meta": {"OBJECT_NAME": "COSMOS 2251 DEB", "OBJECT_ID": "1993-036AKP", "EPOCH": "2025-12-24T19:40:46.420608", "MEAN_MOTION": 14.59408318, "ECCENTRICITY": 0.01439573, "INCLINATION": 74.0386, "RA_OF_ASC_NODE": 276.9734, "ARG_OF_PERICENTER": 1.0045, "MEAN_ANOMALY": 359.138, "EPHEMERIS_TYPE": 0, "CLASSIFICATION_TYPE": "U", "NORAD_CAT_ID": 35445, "ELEMENT_SET_NO": 999, "REV_AT_EPOCH": 87505, "BSTAR": 0.0021997687, "MEAN_MOTION_DOT": 0.00012035, "MEAN_MOTION_DDOT": 0}, "tle": {"line1": "1 35445U 93036AKP 25358.81998172  .00012035  00000+0  21998-2 0  9991", "line2": "2 35445  74.0386 276.9734 0143957   1.0045 359.1380 14.59408318875055"}}, "geometry": {"type": "Point", "coordinates": [65.64171474482771, 57.400217267866516]}}]}